OBJECT_NAME,OBJECT_ID,EPOCH,MEAN_MOTION,ECCENTRICITY,INCLINATION,RA_OF_ASC_NODE,ARG_OF_PERICENTER,MEAN_ANOMALY,EPHEMERIS_TYPE,CLASSIFICATION_TYPE,NORAD_CAT_ID,ELEMENT_SET_NO,REV_AT_EPOCH,BSTAR,MEAN_MOTION_DOT,MEAN_MOTION_DDOT
STARLINK-35443,2025-253W,2026-07-17T00:25:09.485760,15.27586267,.0001273,42.9991,202.1145,247.1704,112.9013,0,U,66339,999,4002,.32159E-3,.8599E-4,0
STARLINK-35218,2025-253X,2026-07-17T00:58:28.041312,15.27585581,.0001029,42.9986,202.2880,275.4268,84.6466,0,U,66340,999,4002,.21223E-3,.5584E-4,0
STARLINK-35522,2025-253Y,2026-07-17T00:43:40.692576,15.27567659,.0003321,42.9955,202.2153,306.9101,53.1446,0,U,66341,999,4002,.11429E-3,.2883E-4,0
STARLINK-35535,2025-253Z,2026-07-17T00:36:16.727040,15.27574120,.0001071,42.9985,202.1744,271.3367,88.7362,0,U,66342,999,4002,.29393E-3,.7833E-4,0
STARLINK-35467,2025-253AA,2026-07-16T10:45:30.479616,15.27588871,.0001505,43.0005,205.5873,278.5299,81.5382,0,U,66343,999,3993,.23196E-3,.6128E-4,0
STARLINK-35511,2025-253AB,2026-07-17T01:20:27.509280,15.27585364,.0002692,43.0040,201.5401,274.2518,85.8026,0,U,66344,999,4003,.27679E-3,.7363E-4,0
STARLINK-35440,2025-253AC,2026-07-16T10:30:42.292800,15.27588246,.000174,43.0005,205.5056,278.2464,81.8190,0,U,66345,999,3993,.247E-3,.6543E-4,0
STARLINK-35482,2025-253AD,2026-07-17T03:14:58.045056,15.27592029,.0001354,42.9998,201.2801,271.3484,88.7213,0,U,66346,999,4004,.34508E-3,.9249E-4,0
STARLINK-35438,2025-253AE,2026-07-17T01:27:52.452000,15.27573793,.0001614,43.0008,201.5765,267.3230,92.7437,0,U,66347,999,4003,.35393E-3,.9488E-4,0
STARLINK-35849,2025-254A,2026-07-16T15:45:27.273024,15.34401806,.0001059,53.1605,353.2387,92.9435,267.1689,0,U,66348,999,3988,.441E-3,.14553E-3,0
STARLINK-35848,2025-254B,2026-07-16T16:41:07.249920,15.31707962,.0001134,53.1622,352.7699,93.6703,266.4428,0,U,66349,999,3873,.27483E-3,.8175E-4,0
STARLINK-35829,2025-254C,2026-07-16T22:36:47.510784,15.31726529,.0001113,53.1608,351.4676,86.3090,273.8038,0,U,66350,999,3877,.52633E-3,.16016E-3,0
STARLINK-35828,2025-254D,2026-07-16T18:48:32.990688,15.31714506,.0001289,53.1607,351.8987,94.5421,265.5728,0,U,66351,999,3875,.33059E-3,.9912E-4,0
STARLINK-35850,2025-254E,2026-07-16T23:20:42.559584,15.30582345,.0002529,53.1607,351.6484,126.2986,233.8249,0,U,66352,999,3877,.67742E-2,.208442E-2,0
STARLINK-35869,2025-254F,2026-07-16T16:55:32.816352,15.30205846,.0000683,53.1617,352.8221,89.2952,270.8127,0,U,66353,999,3873,.39397E-3,.11329E-3,0
STARLINK-35895,2025-254G,2026-07-16T14:14:14.262432,15.33553842,.0001088,53.1597,353.5586,78.2791,281.8334,0,U,66354,999,3871,.33798E-3,.1076E-3,0
STARLINK-35861,2025-254H,2026-07-17T04:00:01.998720,15.34409722,.0001152,53.1605,351.1950,55.9400,69.0499,0,U,66355,999,586,.20364E-3,.6512E-4,0
STARLINK-35851,2025-254J,2026-07-16T15:42:25.388928,15.34405757,.0001,53.1606,353.2229,94.9513,265.1604,0,U,66356,999,3872,.55469E-3,.18414E-3,0
STARLINK-35817,2025-254K,2026-07-17T00:00:02.000160,15.34411203,.0001276,53.1592,351.7436,93.3585,306.7485,0,U,66357,999,583,.11064E-3,.3365E-4,0
STARLINK-35807,2025-254L,2026-07-16T19:22:09.217632,15.31714727,.000066,53.1605,352.0422,69.7847,290.3226,0,U,66358,999,3875,.30452E-3,.91E-4,0
STARLINK-35805,2025-254M,2026-07-16T15:27:11.070432,15.31716420,.0000938,53.1603,352.4461,82.0148,278.0959,0,U,66359,999,3986,.35975E-3,.1082E-3,0
STARLINK-35823,2025-254N,2026-07-16T20:11:15.493056,15.30205935,.0000901,53.1604,352.2498,76.4193,283.6908,0,U,66360,999,3875,.20914E-3,.5841E-4,0
STARLINK-35813,2025-254P,2026-07-16T20:15:47.304000,15.31714739,.0000497,53.1596,351.5622,86.6449,273.4610,0,U,66361,999,3876,.66969E-3,.20483E-3,0
STARLINK-35822,2025-254Q,2026-07-16T15:54:33.276096,15.34427616,.0001341,53.1607,353.2742,72.1337,287.9812,0,U,66362,999,3872,.52892E-3,.17552E-3,0
STARLINK-35806,2025-254R,2026-07-17T00:00:02.000160,15.33561769,.0001122,53.1610,352.0550,82.1002,160.1345,0,U,66363,999,588,-.36003E-3,-.12199E-3,0
STARLINK-35797,2025-254S,2026-07-17T00:26:51.466272,15.32085767,.0002356,53.1628,351.9375,61.0378,299.0860,0,U,66364,999,3877,.22069E-1,.744821E-2,0
STARLINK-35827,2025-254T,2026-07-16T18:01:38.064864,15.31709244,.0001124,53.1609,352.4039,78.7988,281.3140,0,U,66365,999,3874,.21637E-3,.6357E-4,0
STARLINK-35845,2025-254U,2026-07-16T16:34:23.888064,15.31712384,.000147,53.1615,352.7377,86.6209,273.4960,0,U,66366,999,3873,.40568E-3,.12249E-3,0
STARLINK-35846,2025-254V,2026-07-16T20:05:10.505760,15.30198377,.0000612,53.1613,352.2210,67.3426,292.7640,0,U,66367,999,3875,.49297E-3,.14269E-3,0
STARLINK-34861,2025-254W,2026-07-16T15:52:37.847424,15.30203670,.0000747,53.1605,351.0877,105.4608,254.6475,0,U,66368,999,3875,.5478E-3,.15902E-3,0
