[ {"name": "STARLINK-35443", "line1": "1 66339U 25253W   26198.01747090  .00008599  00000+0  32159-3 0  9991", "line2": "2 66339  42.9991 202.1145 0001273 247.1704 112.9013 15.27586267 40028"}, {"name": "STARLINK-35218", "line1": "1 66340U 25253X   26198.04060233  .00005584  00000+0  21223-3 0  9994", "line2": "2 66340  42.9986 202.2880 0001029 275.4268  84.6466 15.27585581 40024"}, {"name": "STARLINK-35522", "line1": "1 66341U 25253Y   26198.03033209  .00002883  00000+0  11429-3 0  9993", "line2": "2 66341  42.9955 202.2153 0003321 306.9101  53.1446 15.27567659 40022"}, {"name": "STARLINK-35535", "line1": "1 66342U 25253Z   26198.02519360  .00007833  00000+0  29393-3 0  9999", "line2": "2 66342  42.9985 202.1744 0001071 271.3367  88.7362 15.27574120 40022"}, {"name": "STARLINK-35467", "line1": "1 66343U 25253AA  26197.44826944  .00006128  00000+0  23196-3 0  9995", "line2": "2 66343  43.0005 205.5873 0001505 278.5299  81.5382 15.27588871 39932"}, {"name": "STARLINK-35511", "line1": "1 66344U 25253AB  26198.05587395  .00007363  00000+0  27679-3 0  9990", "line2": "2 66344  43.0040 201.5401 0002692 274.2518  85.8026 15.27585364 40039"}, {"name": "STARLINK-35440", "line1": "1 66345U 25253AC  26197.43798950  .00006543  00000+0  24700-3 0  9994", "line2": "2 66345  43.0005 205.5056 0001740 278.2464  81.8190 15.27588246 39935"}, {"name": "STARLINK-35482", "line1": "1 66346U 25253AD  26198.13539404  .00009249  00000+0  34508-3 0  9993", "line2": "2 66346  42.9998 201.2801 0001354 271.3484  88.7213 15.27592029 40043"}, {"name": "STARLINK-35438", "line1": "1 66347U 25253AE  26198.06102375  .00009488  00000+0  35393-3 0  9997", "line2": "2 66347  43.0008 201.5765 0001614 267.3230  92.7437 15.27573793 40032"}, {"name": "STARLINK-35849", "line1": "1 66348U 25254A   26197.65656566  .00014553  00000+0  44100-3 0  9994", "line2": "2 66348  53.1605 353.2387 0001059  92.9435 267.1689 15.34401806 39886"}, {"name": "STARLINK-35848", "line1": "1 66349U 25254B   26197.69522280  .00008175  00000+0  27483-3 0  9992", "line2": "2 66349  53.1622 352.7699 0001134  93.6703 266.4428 15.31707962 38731"}, {"name": "STARLINK-35829", "line1": "1 66350U 25254C   26197.94221656  .00016016  00000+0  52633-3 0  9993", "line2": "2 66350  53.1608 351.4676 0001113  86.3090 273.8038 15.31726529 38776"}, {"name": "STARLINK-35828", "line1": "1 66351U 25254D   26197.78371517  .00009912  00000+0  33059-3 0  9996", "line2": "2 66351  53.1607 351.8987 0001289  94.5421 265.5728 15.31714506 38752"}, {"name": "STARLINK-35850", "line1": "1 66352U 25254E   26197.97271481  .00208442  00000+0  67742-2 0  9991", "line2": "2 66352  53.1607 351.6484 0002529 126.2986 233.8249 15.30582345 38771"}, {"name": "STARLINK-35869", "line1": "1 66353U 25254F   26197.70524093  .00011329  00000+0  39397-3 0  9995", "line2": "2 66353  53.1617 352.8221 0000683  89.2952 270.8127 15.30205846 38735"}, {"name": "STARLINK-35895", "line1": "1 66354U 25254G   26197.59322063  .00010760  00000+0  33798-3 0  9993", "line2": "2 66354  53.1597 353.5586 0001088  78.2791 281.8334 15.33553842 38719"}, {"name": "STARLINK-35861", "line1": "1 66355U 25254H   26198.16668980  .00006512  00000+0  20364-3 0  9994", "line2": "2 66355  53.1605 351.1950 0001152  55.9400  69.0499 15.34409722  5866"}, {"name": "STARLINK-35851", "line1": "1 66356U 25254J   26197.65446052  .00018414  00000+0  55469-3 0  9990", "line2": "2 66356  53.1606 353.2229 0001000  94.9513 265.1604 15.34405757 38722"}, {"name": "STARLINK-35817", "line1": "1 66357U 25254K   26198.00002315  .00003365  00000+0  11064-3 0  9993", "line2": "2 66357  53.1592 351.7436 0001276  93.3585 306.7485 15.34411203  5835"}, {"name": "STARLINK-35807", "line1": "1 66358U 25254L   26197.80705113  .00009100  00000+0  30452-3 0  9992", "line2": "2 66358  53.1605 352.0422 0000660  69.7847 290.3226 15.31714727 38756"}, {"name": "STARLINK-35805", "line1": "1 66359U 25254M   26197.64387813  .00010820  00000+0  35975-3 0  9994", "line2": "2 66359  53.1603 352.4461 0000938  82.0148 278.0959 15.31716420 39863"}, {"name": "STARLINK-35823", "line1": "1 66360U 25254N   26197.84115154  .00005841  00000+0  20914-3 0  9999", "line2": "2 66360  53.1604 352.2498 0000901  76.4193 283.6908 15.30205935 38757"}, {"name": "STARLINK-35813", "line1": "1 66361U 25254P   26197.84429750  .00020483  00000+0  66969-3 0  9999", "line2": "2 66361  53.1596 351.5622 0000497  86.6449 273.4610 15.31714739 38762"}, {"name": "STARLINK-35822", "line1": "1 66362U 25254Q   26197.66288514  .00017552  00000+0  52892-3 0  9994", "line2": "2 66362  53.1607 353.2742 0001341  72.1337 287.9812 15.34427616 38721"}, {"name": "STARLINK-35806", "line1": "1 66363U 25254R   26198.00002315 -.00012199  00000+0 -36003-3 0  9997", "line2": "2 66363  53.1610 352.0550 0001122  82.1002 160.1345 15.33561769  5888"}, {"name": "STARLINK-35797", "line1": "1 66364U 25254S   26198.01865123  .00744821  00000+0  22069-1 0  9990", "line2": "2 66364  53.1628 351.9375 0002356  61.0378 299.0860 15.32085767 38779"}, {"name": "STARLINK-35827", "line1": "1 66365U 25254T   26197.75113501  .00006357  00000+0  21637-3 0  9994", "line2": "2 66365  53.1609 352.4039 0001124  78.7988 281.3140 15.31709244 38740"}, {"name": "STARLINK-35845", "line1": "1 66366U 25254U   26197.69055426  .00012249  00000+0  40568-3 0  9990", "line2": "2 66366  53.1615 352.7377 0001470  86.6209 273.4960 15.31712384 38734"}, {"name": "STARLINK-35846", "line1": "1 66367U 25254V   26197.83692715  .00014269  00000+0  49297-3 0  9997", "line2": "2 66367  53.1613 352.2210 0000612  67.3426 292.7640 15.30198377 38758"}, {"name": "STARLINK-34861", "line1": "1 66368U 25254W   26197.66154916  .00015902  00000+0  54780-3 0  9993", "line2": "2 66368  53.1605 351.0877 0000747 105.4608 254.6475 15.30203670 38757"}]